[{"OBJECT_NAME":"STARLINK-5562","OBJECT_ID":"2023-058V","EPOCH":"2026-03-09T22:09:34.119648","MEAN_MOTION":15.01261223,"ECCENTRICITY":0.00016906,"INCLINATION":97.604,"RA_OF_ASC_NODE":70.411,"ARG_OF_PERICENTER":53.5061,"MEAN_ANOMALY":306.6319,"EPHEMERIS_TYPE":0,"CLASSIFICATION_TYPE":"U","NORAD_CAT_ID":56336,"ELEMENT_SET_NO":999,"REV_AT_EPOCH":15816,"BSTAR":-2.509918e-6,"MEAN_MOTION_DOT":-9.1e-7,"MEAN_MOTION_DDOT":0},{"OBJECT_NAME":"FENGYUN 1C DEB","OBJECT_ID":"1999-025CWT","EPOCH":"2026-03-07T12:20:18.865536","MEAN_MOTION":14.78969829,"ECCENTRICITY":0.00944747,"INCLINATION":98.6527,"RA_OF_ASC_NODE":273.8426,"ARG_OF_PERICENTER":72.7865,"MEAN_ANOMALY":288.3658,"EPHEMERIS_TYPE":0,"CLASSIFICATION_TYPE":"U","NORAD_CAT_ID":32245,"ELEMENT_SET_NO":999,"REV_AT_EPOCH":67358,"BSTAR":0.0016597334,"MEAN_MOTION_DOT":0.00013167,"MEAN_MOTION_DDOT":0}]
